0 DMSP 5D-2 F14 DEB
1 24778U 97012E   13281.99797956  .00003372  00000-0  10969-2 0  9096
2 24778 098.8749 107.1840 0006489 012.8860 140.1942 14.39463064858987
0 DMSP 5D-2 F14 DEB
1 24778U 97012E   13284.20295049  .00003492  00000-0  11350-2 0  9109
2 24778 098.8746 109.4668 0006486 006.6770 046.2337 14.39475029859300
0 DMSP 5D-2 F14 DEB
1 24778U 97012E   13286.49680302  .00002942  00000-0  95856-3 0  9116
2 24778 098.8737 111.8413 0006418 359.9276 053.2453 14.39487333859639
0 DMSP 5D-2 F14 DEB
1 24778U 97012E   13288.51355706  .00004612  00000-0  14932-2 0  9120
2 24778 098.8732 113.9293 0006377 354.0101 064.3782 14.39504003859924
0 DMSP 5D-2 F14 DEB
1 24778U 97012E   13290.53040338  .00004419  00000-0  14310-2 0  9133
2 24778 098.8730 116.0168 0006419 348.2382 075.9595 14.39516900860213
0 DMSP 5D-2 F14 DEB
1 24778U 97012E   13292.83589985  .00003844  00000-0  12465-2 0  9145
2 24778 098.8731 118.4037 0006362 341.5337 143.5972 14.39532557860541
0 DMSP 5D-2 F14 DEB
1 24778U 97012E   13295.46418646  .00004702  00000-0  15204-2 0  9151
2 24778 098.8737 121.1248 0006298 333.8873 084.1701 14.39549971860929
